CCSDS_OMM_VERS = 2.0
CREATION_DATE  = 
ORIGINATOR     = 

OBJECT_NAME    = HULIANWANG DIGUI-124
OBJECT_ID      = 2025-295F
CENTER_NAME    = EARTH
REF_FRAME      = TEME
TIME_SYSTEM    = UTC
MEAN_ELEMENT_THEORY = SGP/SGP4

EPOCH          = 2025-12-21T04:23:00.128832
MEAN_MOTION    = 14.25948642
ECCENTRICITY   = .0012091
INCLINATION    = 50.0036
RA_OF_ASC_NODE = 336.5640
ARG_OF_PERICENTER = 276.9618
MEAN_ANOMALY   = 82.9920

EPHEMERIS_TYPE = 0
CLASSIFICATION_TYPE = U
NORAD_CAT_ID   = 67064
ELEMENT_SET_NO = 999
REV_AT_EPOCH   = 132
BSTAR          = -.18353E-3
MEAN_MOTION_DOT = -.601E-5
MEAN_MOTION_DDOT = 0

CCSDS_OMM_VERS = 2.0
CREATION_DATE  = 
ORIGINATOR     = 

OBJECT_NAME    = HULIANWANG DIGUI-125
OBJECT_ID      = 2025-295G
CENTER_NAME    = EARTH
REF_FRAME      = TEME
TIME_SYSTEM    = UTC
MEAN_ELEMENT_THEORY = SGP/SGP4

EPOCH          = 2025-12-21T04:22:57.493632
MEAN_MOTION    = 14.25954475
ECCENTRICITY   = .0012271
INCLINATION    = 50.0011
RA_OF_ASC_NODE = 336.5623
ARG_OF_PERICENTER = 282.9102
MEAN_ANOMALY   = 77.0441

EPHEMERIS_TYPE = 0
CLASSIFICATION_TYPE = U
NORAD_CAT_ID   = 67065
ELEMENT_SET_NO = 999
REV_AT_EPOCH   = 132
BSTAR          = .74207E-4
MEAN_MOTION_DOT = .18E-6
MEAN_MOTION_DDOT = 0

CCSDS_OMM_VERS = 2.0
CREATION_DATE  = 
ORIGINATOR     = 

OBJECT_NAME    = HULIANWANG DIGUI-126
OBJECT_ID      = 2025-295H
CENTER_NAME    = EARTH
REF_FRAME      = TEME
TIME_SYSTEM    = UTC
MEAN_ELEMENT_THEORY = SGP/SGP4

EPOCH          = 2025-12-21T04:21:36.444384
MEAN_MOTION    = 14.26097450
ECCENTRICITY   = .0011434
INCLINATION    = 50.0013
RA_OF_ASC_NODE = 336.5565
ARG_OF_PERICENTER = 279.9834
MEAN_ANOMALY   = 79.9790

EPHEMERIS_TYPE = 0
CLASSIFICATION_TYPE = U
NORAD_CAT_ID   = 67066
ELEMENT_SET_NO = 999
REV_AT_EPOCH   = 132
BSTAR          = .72228E-4
MEAN_MOTION_DOT = .14E-6
MEAN_MOTION_DDOT = 0

CCSDS_OMM_VERS = 2.0
CREATION_DATE  = 
ORIGINATOR     = 

OBJECT_NAME    = HULIANWANG DIGUI-127
OBJECT_ID      = 2025-295J
CENTER_NAME    = EARTH
REF_FRAME      = TEME
TIME_SYSTEM    = UTC
MEAN_ELEMENT_THEORY = SGP/SGP4

EPOCH          = 2025-12-20T23:17:38.160384
MEAN_MOTION    = 14.26250284
ECCENTRICITY   = .0010881
INCLINATION    = 50.0053
RA_OF_ASC_NODE = 337.4474
ARG_OF_PERICENTER = 282.8890
MEAN_ANOMALY   = 77.0809

EPHEMERIS_TYPE = 0
CLASSIFICATION_TYPE = U
NORAD_CAT_ID   = 67067
ELEMENT_SET_NO = 999
REV_AT_EPOCH   = 129
BSTAR          = -.25532E-3
MEAN_MOTION_DOT = -.777E-5
MEAN_MOTION_DDOT = 0

CCSDS_OMM_VERS = 2.0
CREATION_DATE  = 
ORIGINATOR     = 

OBJECT_NAME    = CZ-12 R/B
OBJECT_ID      = 2025-295K
CENTER_NAME    = EARTH
REF_FRAME      = TEME
TIME_SYSTEM    = UTC
MEAN_ELEMENT_THEORY = SGP/SGP4

EPOCH          = 2025-12-21T03:44:09.385152
MEAN_MOTION    = 14.41128989
ECCENTRICITY   = .0056878
INCLINATION    = 49.9943
RA_OF_ASC_NODE = 335.7666
ARG_OF_PERICENTER = 166.0712
MEAN_ANOMALY   = 194.1792

EPHEMERIS_TYPE = 0
CLASSIFICATION_TYPE = U
NORAD_CAT_ID   = 67068
ELEMENT_SET_NO = 999
REV_AT_EPOCH   = 132
BSTAR          = .62973E-5
MEAN_MOTION_DOT = -.148E-5
MEAN_MOTION_DDOT = 0

CCSDS_OMM_VERS = 2.0
CREATION_DATE  = 
ORIGINATOR     = 

OBJECT_NAME    = XIWANG-5 02
OBJECT_ID      = 2025-296A
CENTER_NAME    = EARTH
REF_FRAME      = TEME
TIME_SYSTEM    = UTC
MEAN_ELEMENT_THEORY = SGP/SGP4

EPOCH          = 2025-12-21T03:07:27.966720
MEAN_MOTION    = 15.16832103
ECCENTRICITY   = .0014471
INCLINATION    = 41.3526
RA_OF_ASC_NODE = 53.7138
ARG_OF_PERICENTER = 85.3212
MEAN_ANOMALY   = 274.9261

EPHEMERIS_TYPE = 0
CLASSIFICATION_TYPE = U
NORAD_CAT_ID   = 67069
ELEMENT_SET_NO = 999
REV_AT_EPOCH   = 123
BSTAR          = .42001E-3
MEAN_MOTION_DOT = .8246E-4
MEAN_MOTION_DDOT = 0

CCSDS_OMM_VERS = 2.0
CREATION_DATE  = 
ORIGINATOR     = 

OBJECT_NAME    = DEAR-5
OBJECT_ID      = 2025-296B
CENTER_NAME    = EARTH
REF_FRAME      = TEME
TIME_SYSTEM    = UTC
MEAN_ELEMENT_THEORY = SGP/SGP4

EPOCH          = 2025-12-21T04:41:06.107712
MEAN_MOTION    = 15.16885233
ECCENTRICITY   = .0016073
INCLINATION    = 41.3552
RA_OF_ASC_NODE = 53.3341
ARG_OF_PERICENTER = 87.2283
MEAN_ANOMALY   = 273.0378

EPHEMERIS_TYPE = 0
CLASSIFICATION_TYPE = U
NORAD_CAT_ID   = 67070
ELEMENT_SET_NO = 999
REV_AT_EPOCH   = 123
BSTAR          = .17223E-3
MEAN_MOTION_DOT = .3263E-4
MEAN_MOTION_DDOT = 0

CCSDS_OMM_VERS = 2.0
CREATION_DATE  = 
ORIGINATOR     = 

OBJECT_NAME    = KZ-11 R/B
OBJECT_ID      = 2025-296C
CENTER_NAME    = EARTH
REF_FRAME      = TEME
TIME_SYSTEM    = UTC
MEAN_ELEMENT_THEORY = SGP/SGP4

EPOCH          = 2025-12-21T07:00:03.472704
MEAN_MOTION    = 15.20658483
ECCENTRICITY   = .0541564
INCLINATION    = 41.3180
RA_OF_ASC_NODE = 55.2730
ARG_OF_PERICENTER = 13.2312
MEAN_ANOMALY   = 348.2100

EPHEMERIS_TYPE = 0
CLASSIFICATION_TYPE = U
NORAD_CAT_ID   = 67071
ELEMENT_SET_NO = 999
REV_AT_EPOCH   = 122
BSTAR          = .52946E-3
MEAN_MOTION_DOT = .7538405E-1
MEAN_MOTION_DDOT = .68017E-5

CCSDS_OMM_VERS = 2.0
CREATION_DATE  = 
ORIGINATOR     = 

OBJECT_NAME    = ELECTRON R/B
OBJECT_ID      = 2025-297A
CENTER_NAME    = EARTH
REF_FRAME      = TEME
TIME_SYSTEM    = UTC
MEAN_ELEMENT_THEORY = SGP/SGP4

EPOCH          = 2025-12-21T04:17:59.419680
MEAN_MOTION    = 15.99134738
ECCENTRICITY   = .0162466
INCLINATION    = 97.4642
RA_OF_ASC_NODE = 143.3091
ARG_OF_PERICENTER = 202.1354
MEAN_ANOMALY   = 157.2857

EPHEMERIS_TYPE = 0
CLASSIFICATION_TYPE = U
NORAD_CAT_ID   = 67072
ELEMENT_SET_NO = 999
REV_AT_EPOCH   = 112
BSTAR          = .13015E-2
MEAN_MOTION_DOT = .3045919E-1
MEAN_MOTION_DDOT = .22029E-5

CCSDS_OMM_VERS = 2.0
CREATION_DATE  = 
ORIGINATOR     = 

OBJECT_NAME    = RAISE-4
OBJECT_ID      = 2025-297B
CENTER_NAME    = EARTH
REF_FRAME      = TEME
TIME_SYSTEM    = UTC
MEAN_ELEMENT_THEORY = SGP/SGP4

EPOCH          = 2025-12-20T20:45:58.863168
MEAN_MOTION    = 15.07187810
ECCENTRICITY   = .00113818
INCLINATION    = 97.4855
RA_OF_ASC_NODE = 142.1956
ARG_OF_PERICENTER = 290.8012
MEAN_ANOMALY   = 69.1996

EPHEMERIS_TYPE = 0
CLASSIFICATION_TYPE = U
NORAD_CAT_ID   = 67073
ELEMENT_SET_NO = 999
REV_AT_EPOCH   = 101
BSTAR          = .19011861E-3
MEAN_MOTION_DOT = .2803E-4
MEAN_MOTION_DDOT = 0

CCSDS_OMM_VERS = 2.0
CREATION_DATE  = 
ORIGINATOR     = 

OBJECT_NAME    = ELECTRON KICK STAGE R/B
OBJECT_ID      = 2025-297C
CENTER_NAME    = EARTH
REF_FRAME      = TEME
TIME_SYSTEM    = UTC
MEAN_ELEMENT_THEORY = SGP/SGP4

EPOCH          = 2025-12-20T20:25:50.466720
MEAN_MOTION    = 15.56920699
ECCENTRICITY   = .019926
INCLINATION    = 97.4821
RA_OF_ASC_NODE = 142.6897
ARG_OF_PERICENTER = 240.0490
MEAN_ANOMALY   = 118.0851

EPHEMERIS_TYPE = 0
CLASSIFICATION_TYPE = U
NORAD_CAT_ID   = 67074
ELEMENT_SET_NO = 999
REV_AT_EPOCH   = 104
BSTAR          = .13584E-2
MEAN_MOTION_DOT = .251081E-2
MEAN_MOTION_DDOT = .18673E-4

CCSDS_OMM_VERS = 2.0
CREATION_DATE  = 
ORIGINATOR     = 

OBJECT_NAME    = STARLINK-36230
OBJECT_ID      = 2025-298A
CENTER_NAME    = EARTH
REF_FRAME      = TEME
TIME_SYSTEM    = UTC
MEAN_ELEMENT_THEORY = SGP/SGP4

EPOCH          = 2025-12-21T04:00:01.998720
MEAN_MOTION    = 15.90071883
ECCENTRICITY   = .0004245
INCLINATION    = 69.9983
RA_OF_ASC_NODE = 226.1797
ARG_OF_PERICENTER = 274.3000
MEAN_ANOMALY   = 102.4754

EPHEMERIS_TYPE = 0
CLASSIFICATION_TYPE = U
NORAD_CAT_ID   = 67075
ELEMENT_SET_NO = 999
REV_AT_EPOCH   = 233
BSTAR          = -.51027E-2
MEAN_MOTION_DOT = -.1529295E-1
MEAN_MOTION_DDOT = .64969E-3

CCSDS_OMM_VERS = 2.0
CREATION_DATE  = 
ORIGINATOR     = 

OBJECT_NAME    = STARLINK-36240
OBJECT_ID      = 2025-298B
CENTER_NAME    = EARTH
REF_FRAME      = TEME
TIME_SYSTEM    = UTC
MEAN_ELEMENT_THEORY = SGP/SGP4

EPOCH          = 2025-12-21T04:00:01.998720
MEAN_MOTION    = 15.90127409
ECCENTRICITY   = .0004198
INCLINATION    = 69.9983
RA_OF_ASC_NODE = 226.1777
ARG_OF_PERICENTER = 272.8099
MEAN_ANOMALY   = 105.5347

EPHEMERIS_TYPE = 0
CLASSIFICATION_TYPE = U
NORAD_CAT_ID   = 67076
ELEMENT_SET_NO = 999
REV_AT_EPOCH   = 233
BSTAR          = -.5081E-2
MEAN_MOTION_DOT = -.152707E-1
MEAN_MOTION_DDOT = .64829E-3

CCSDS_OMM_VERS = 2.0
CREATION_DATE  = 
ORIGINATOR     = 

OBJECT_NAME    = STARLINK-36243
OBJECT_ID      = 2025-298C
CENTER_NAME    = EARTH
REF_FRAME      = TEME
TIME_SYSTEM    = UTC
MEAN_ELEMENT_THEORY = SGP/SGP4

EPOCH          = 2025-12-21T04:00:01.998720
MEAN_MOTION    = 15.90188589
ECCENTRICITY   = .0004224
INCLINATION    = 69.9979
RA_OF_ASC_NODE = 226.1755
ARG_OF_PERICENTER = 275.7323
MEAN_ANOMALY   = 104.5248

EPHEMERIS_TYPE = 0
CLASSIFICATION_TYPE = U
NORAD_CAT_ID   = 67077
ELEMENT_SET_NO = 999
REV_AT_EPOCH   = 233
BSTAR          = -.50828E-2
MEAN_MOTION_DOT = -.1532295E-1
MEAN_MOTION_DDOT = .65278E-3

CCSDS_OMM_VERS = 2.0
CREATION_DATE  = 
ORIGINATOR     = 

OBJECT_NAME    = STARLINK-36236
OBJECT_ID      = 2025-298D
CENTER_NAME    = EARTH
REF_FRAME      = TEME
TIME_SYSTEM    = UTC
MEAN_ELEMENT_THEORY = SGP/SGP4

EPOCH          = 2025-12-21T04:00:01.998720
MEAN_MOTION    = 15.90243972
ECCENTRICITY   = .0004266
INCLINATION    = 69.9981
RA_OF_ASC_NODE = 226.1735
ARG_OF_PERICENTER = 274.5043
MEAN_ANOMALY   = 107.1732

EPHEMERIS_TYPE = 0
CLASSIFICATION_TYPE = U
NORAD_CAT_ID   = 67078
ELEMENT_SET_NO = 999
REV_AT_EPOCH   = 233
BSTAR          = -.50806E-2
MEAN_MOTION_DOT = -.1535899E-1
MEAN_MOTION_DDOT = .65597E-3

